CHINASAT 26 (ZX 26)     
1 55686U 23023A   24152.86334844 -.00000350  00000+0  00000+0 0  9991
2 55686   0.0753  82.9940 0003245   1.6073 241.1902  1.00273085  4740
LUCH-5X (OLYMP-K 2)     
1 55841U 23031A   24153.55501780  .00000036  00000+0  00000+0 0  9995
2 55841   0.0483  82.0150 0001164 359.0925  13.9112  1.00273561  4478
GAOFEN-13 02            
1 55912U 23036A   24152.72448819 -.00000232  00000+0  00000+0 0  9999
2 55912   2.0566 305.4259 0003238 309.6189  42.0361  1.00266075  4606
SES-18                  
1 55970U 23038A   24153.53361024 -.00000097  00000+0  00000+0 0  9996
2 55970   0.0168 297.0093 0000032 103.3886 299.1168  1.00271153  4625
SES-19                  
1 55971U 23038B   24153.56021572  .00000092  00000+0  00000+0 0  9995
2 55971   0.0134  21.0083 0001505  47.8550 248.4257  1.00271390  4594
INTELSAT 40E (IS-40E)   
1 56174U 23052A   24153.38111998 -.00000170  00000+0  00000+0 0  9997
2 56174   0.0069  11.3171 0001456  99.8566 185.3841  1.00271194  4349
VIASAT-3                
1 56370U 23060A   24151.89056705 -.00000182  00000+0  00000+0 0  9995
2 56370   0.0176 307.0503 0000661 356.2132 177.3231  1.00267698  3950
ARCTURUS                
1 56371U 23060B   24153.56963760 -.00000113  00000+0  00000+0 0  9994
2 56371   0.8464  88.7817 0000067 264.4037 180.4440  1.00273040  3982
GS-1                    
1 56372U 23060C   24151.39632937 -.00000221  00000+0  00000+0 0  9993
2 56372   0.7928  87.8011 0003713 281.3893 111.3140  1.00273367    48
BEIDOU-3 G4             
1 56564U 23066A   24153.57340858 -.00000109  00000+0  00000+0 0  9997
2 56564   2.1612 288.2116 0005354 197.0649 131.7480  1.00270438  3913
ARABSAT-7B (BADR-8)     
1 56757U 23075A   24153.55928191  .00000148  00000+0  00000+0 0  9993
2 56757   0.0735  23.9804 0004642 358.3268  95.5443  1.00270307  3669
IRNSS-1J (NVS-01)       
1 56759U 23076A   24153.58104869 -.00000333  00000+0  00000+0 0  9994
2 56759   4.0372 266.5381 0003823  21.9857 300.6583  1.00265118  3630
NUSANTARA TIGA (SATRIA) 
1 57045U 23086A   24152.78452157 -.00000231  00000+0  00000+0 0  9998
2 57045   0.0336 328.3299 0003975  17.5363 332.3238  1.00271533  2277
H2SAT (HEINRICH HERTZ)  
1 57213U 23093A   24152.69567359  .00000004  00000+0  00000+0 0  9991
2 57213   0.0025 140.3736 0000888  78.0520 282.1820  1.00271348  3436
SYRACUSE 4B             
1 57214U 23093B   24152.12966212 -.00000051  00000+0  00000+0 0  9994
2 57214   0.0112 317.1007 0000363 203.5722 128.5652  1.00270199   454
JUPITER 3 (ECHOSTAR 24) 
1 57479U 23108A   24152.57138741 -.00000146  00000+0  00000+0 0  9996
2 57479   0.0184 328.0099 0001473  98.4461 293.5595  1.00269172  3150
GALAXY 37 (G-37)        
1 57493U 23112A   24153.55466119  .00000052  00000+0  00000+0 0  9994
2 57493   0.0168  17.0090 0001953  55.5511 250.6389  1.00271236  3044
LUDI TANCE-4 01A        
1 57624U 23120A   24153.14255017 -.00000175  00000+0  00000+0 0  9994
2 57624  15.7607 212.1177 0003118 193.5259 345.2016  1.00265165  3066
TJS-10                  
1 58204U 23169A   24153.56229837  .00000004  00000+0  00000+0 0  9999
2 58204   0.6105  88.7298 0001302 292.1839 244.8404  1.00270296  2066
CHINASAT 6E (ZX 6E)     
1 58253U 23172A   24153.50550522 -.00000358  00000+0  00000+0 0  9992
2 58253   0.0225 283.9926 0003647 156.4707 107.4844  1.00273784  2184
YAOGAN-41               
1 58582U 23197A   24153.59181306 -.00000362  00000+0  00000+0 0  9998
2 58582   4.6336 307.7385 0018851 174.4658 104.6740  1.00274221  1847
OVZON-3                 
1 58698U 24003A   24152.63593450  .00000055  00000+0  00000+0 0  9992
2 58698   0.0561 261.2848 0001407 302.4553 334.4800  1.00269598  1749
INSAT-3DS               
1 58990U 24033A   24153.55674410 -.00000161  00000+0  00000+0 0  9997
2 58990   0.1607  91.3750 0011664 358.4466  84.1322  1.00271589   818
MERAH PUTIH 2           
1 58995U 24035A   24153.58625846 -.00000354  00000+0  00000+0 0  9990
2 58995   0.0173 301.7806 0001105 126.6648 146.1196  1.00271413  1114
TJS-11                  
1 59020U 24037A   24153.59572440 -.00000371  00000+0  00000+0 0  9993
2 59020   5.3562 321.3175 0004697 169.8329  94.1319  1.00273983  1107
HULIANWAN GAOGUI-01 (H*)
1 59069U 24040A   24153.34215875  .00000159  00000+0  00000+0 0  9992
2 59069   0.0491 104.1558 0003000 296.0103   6.9785  1.00271391    57
